STARLINK-30562          
1 58033U 23156F   26068.53825442 -.00000347  00000+0  40771-6 0  9990
2 58033  53.1601 168.5952 0001202  82.6950 277.4187 15.30187140135014
NUSAT-49 (KLARA DAN VO*)
1 60500U 24149AJ  26068.79810190  .00012912  00000+0  43568-3 0  9991
2 60500  97.3807 150.7380 0001132 286.7761  73.3356 15.30828857 86935
